[{"OBJECT_NAME":"HERMES-3","OBJECT_ID":"2025-052BR","EPOCH":"2026-03-09T22:30:01.073952","MEAN_MOTION":15.30039786,"ECCENTRICITY":0.00079928,"INCLINATION":97.3987,"RA_OF_ASC_NODE":324.6131,"ARG_OF_PERICENTER":112.9583,"MEAN_ANOMALY":247.2502,"EPHEMERIS_TYPE":0,"CLASSIFICATION_TYPE":"U","NORAD_CAT_ID":63835,"ELEMENT_SET_NO":999,"REV_AT_EPOCH":5486,"BSTAR":0.0006995793,"MEAN_MOTION_DOT":0.00020316,"MEAN_MOTION_DDOT":0},{"OBJECT_NAME":"STARLINK-33934","OBJECT_ID":"2025-113T","EPOCH":"2026-03-09T08:38:29.148576","MEAN_MOTION":15.30199735,"ECCENTRICITY":0.00011947,"INCLINATION":53.1586,"RA_OF_ASC_NODE":92.7337,"ARG_OF_PERICENTER":82.1972,"MEAN_ANOMALY":277.9164,"EPHEMERIS_TYPE":0,"CLASSIFICATION_TYPE":"U","NORAD_CAT_ID":64187,"ELEMENT_SET_NO":999,"REV_AT_EPOCH":4497,"BSTAR":0.00074842181,"MEAN_MOTION_DOT":0.00021872,"MEAN_MOTION_DDOT":0}]
