HERMES-3                
1 63835U 25052BR  26068.93751242  .00020316  00000+0  69958-3 0  9995
2 63835  97.3987 324.6131 0007993 112.9583 247.2502 15.30039785 54863
STARLINK-33934          
1 64187U 25113T   26068.36005959  .00021872  00000+0  74842-3 0  9994
2 64187  53.1586  92.7337 0001194  82.1972 277.9164 15.30199735 44974
